{
  "type": "FeatureCollection",
  "features": [
    {
      "type": "Feature",
      "properties": {
        "norad_id": 35435,
        "name": "COSMOS 2251 DEB",
        "group": "cosmos-2251-debris",
        "lat": -34.7505966934638,
        "lon": -87.5707201179828,
        "alt_km": 635.1555198272035,
        "timestamp": "2025-12-24T11:33:00.414758+00:00",
        "meta_object_name": "COSMOS 2251 DEB",
        "meta_object_id": "1993-036AKD",
        "meta_epoch": "2025-12-21T23:02:18.053952",
        "meta_mean_motion": 14.78725447,
        "meta_eccentricity": 0.0007022,
        "meta_inclination": 74.0111,
        "meta_ra_of_asc_node": 85.9177,
        "meta_arg_of_pericenter": 183.0187,
        "meta_mean_anomaly": 296.3821,
        "meta_ephemeris_type": 0,
        "meta_classification_type": "U",
        "meta_norad_cat_id": 35435,
        "meta_element_set_no": 999,
        "meta_rev_at_epoch": 87675,
        "meta_bstar": 0.0022341039,
        "meta_mean_motion_dot": 0.00016414,
        "meta_mean_motion_ddot": 0,
        "tle_line1": "1 35435U 93036AKD 25355.95993118  .00016414  00000+0  22341-2 0  9995",
        "tle_line2": "2 35435  74.0111  85.9177 0007022 183.0187 296.3821 14.78725447876755"
      },
      "geometry": {
        "type": "Point",
        "coordinates": [
          -87.5707201179828,
          -34.7505966934638
        ]
      }
    },
    {
      "type": "Feature",
      "properties": {
        "norad_id": 35439,
        "name": "COSMOS 2251 DEB",
        "group": "cosmos-2251-debris",
        "lat": 55.782525668700806,
        "lon": -90.29986101093228,
        "alt_km": 1079.7340888865583,
        "timestamp": "2025-12-24T11:33:00.414768+00:00",
        "meta_object_name": "COSMOS 2251 DEB",
        "meta_object_id": "1993-036AKH",
        "meta_epoch": "2025-12-23T01:03:41.280192",
        "meta_mean_motion": 13.9285581,
        "meta_eccentricity": 0.02428241,
        "meta_inclination": 74.0195,
        "meta_ra_of_asc_node": 117.083,
        "meta_arg_of_pericenter": 284.1415,
        "meta_mean_anomaly": 194.5054,
        "meta_ephemeris_type": 0,
        "meta_classification_type": "U",
        "meta_norad_cat_id": 35439,
        "meta_element_set_no": 999,
        "meta_rev_at_epoch": 84104,
        "meta_bstar": 0.0017241175,
        "meta_mean_motion_dot": 2.822e-05,
        "meta_mean_motion_ddot": 0,
        "tle_line1": "1 35439U 93036AKH 25357.04422778  .00002822  00000+0  17241-2 0  9991",
        "tle_line2": "2 35439  74.0195 117.0830 0242824 284.1415 194.5054 13.92855810841046"
      },
      "geometry": {
        "type": "Point",
        "coordinates": [
          -90.29986101093228,
          55.782525668700806
        ]
      }
    },
    {
      "type": "Feature",
      "properties": {
        "norad_id": 35440,
        "name": "COSMOS 2251 DEB",
        "group": "cosmos-2251-debris",
        "lat": 17.104141014095887,
        "lon": -0.18711690206292086,
        "alt_km": 711.2505154424489,
        "timestamp": "2025-12-24T11:33:00.414778+00:00",
        "meta_object_name": "COSMOS 2251 DEB",
        "meta_object_id": "1993-036AKJ",
        "meta_epoch": "2025-12-22T19:34:52.667040",
        "meta_mean_motion": 14.68858524,
        "meta_eccentricity": 0.00697181,
        "meta_inclination": 74.0136,
        "meta_ra_of_asc_node": 188.1002,
        "meta_arg_of_pericenter": 326.674,
        "meta_mean_anomaly": 33.0049,
        "meta_ephemeris_type": 0,
        "meta_classification_type": "U",
        "meta_norad_cat_id": 35440,
        "meta_element_set_no": 999,
        "meta_rev_at_epoch": 68913,
        "meta_bstar": 0.00037964995,
        "meta_mean_motion_dot": 2.268e-05,
        "meta_mean_motion_ddot": 0,
        "tle_line1": "1 35440U 93036AKJ 25356.81588735  .00002268  00000+0  37965-3 0  9993",
        "tle_line2": "2 35440  74.0136 188.1002 0069718 326.6740  33.0049 14.68858524689135"
      },
      "geometry": {
        "type": "Point",
        "coordinates": [
          -0.18711690206292086,
          17.104141014095887
        ]
      }
    },
    {
      "type": "Feature",
      "properties": {
        "norad_id": 35441,
        "name": "COSMOS 2251 DEB",
        "group": "cosmos-2251-debris",
        "lat": -34.37328535184487,
        "lon": 106.9519923150425,
        "alt_km": 673.009260671135,
        "timestamp": "2025-12-24T11:33:00.414789+00:00",
        "meta_object_name": "COSMOS 2251 DEB",
        "meta_object_id": "1993-036AKK",
        "meta_epoch": "2025-12-24T00:43:11.053056",
        "meta_mean_motion": 14.62751051,
        "meta_eccentricity": 0.0036034,
        "meta_inclination": 74.1348,
        "meta_ra_of_asc_node": 276.594,
        "meta_arg_of_pericenter": 169.0549,
        "meta_mean_anomaly": 191.1411,
        "meta_ephemeris_type": 0,
        "meta_classification_type": "U",
        "meta_norad_cat_id": 35441,
        "meta_element_set_no": 999,
        "meta_rev_at_epoch": 87595,
        "meta_bstar": 0.0014329,
        "meta_mean_motion_dot": 7.351e-05,
        "meta_mean_motion_ddot": 0,
        "tle_line1": "1 35441U 93036AKK 25358.02998904  .00007351  00000+0  14329-2 0  9998",
        "tle_line2": "2 35441  74.1348 276.5940 0036034 169.0549 191.1411 14.62751051875953"
      },
      "geometry": {
        "type": "Point",
        "coordinates": [
          106.9519923150425,
          -34.37328535184487
        ]
      }
    },
    {
      "type": "Feature",
      "properties": {
        "norad_id": 35442,
        "name": "COSMOS 2251 DEB",
        "group": "cosmos-2251-debris",
        "lat": -51.6467885314191,
        "lon": 54.60609242111557,
        "alt_km": 621.0819635954285,
        "timestamp": "2025-12-24T11:33:00.414799+00:00",
        "meta_object_name": "COSMOS 2251 DEB",
        "meta_object_id": "1993-036AKL",
        "meta_epoch": "2025-12-23T11:32:24.012672",
        "meta_mean_motion": 14.8478997,
        "meta_eccentricity": 0.000395,
        "meta_inclination": 74.0271,
        "meta_ra_of_asc_node": 77.8141,
        "meta_arg_of_pericenter": 44.74,
        "meta_mean_anomaly": 315.4097,
        "meta_ephemeris_type": 0,
        "meta_classification_type": "U",
        "meta_norad_cat_id": 35442,
        "meta_element_set_no": 999,
        "meta_rev_at_epoch": 87512,
        "meta_bstar": 0.0019664343,
        "meta_mean_motion_dot": 0.00016699,
        "meta_mean_motion_ddot": 0,
        "tle_line1": "1 35442U 93036AKL 25357.48083348  .00016699  00000+0  19664-2 0  9997",
        "tle_line2": "2 35442  74.0271  77.8141 0003950  44.7400 315.4097 14.84789970875124"
      },
      "geometry": {
        "type": "Point",
        "coordinates": [
          54.60609242111557,
          -51.6467885314191
        ]
      }
    },
    {
      "type": "Feature",
      "properties": {
        "norad_id": 35443,
        "name": "COSMOS 2251 DEB",
        "group": "cosmos-2251-debris",
        "lat": 30.021188372158228,
        "lon": 118.21237800105659,
        "alt_km": 548.1684487704533,
        "timestamp": "2025-12-24T11:33:00.414810+00:00",
        "meta_object_name": "COSMOS 2251 DEB",
        "meta_object_id": "1993-036AKM",
        "meta_epoch": "2025-12-22T07:35:27.878496",
        "meta_mean_motion": 14.97448955,
        "meta_eccentricity": 0.00729664,
        "meta_inclination": 73.9898,
        "meta_ra_of_asc_node": 312.1571,
        "meta_arg_of_pericenter": 91.4914,
        "meta_mean_anomaly": 269.4631,
        "meta_ephemeris_type": 0,
        "meta_classification_type": "U",
        "meta_norad_cat_id": 35443,
        "meta_element_set_no": 999,
        "meta_rev_at_epoch": 87021,
        "meta_bstar": 0.0042887537,
        "meta_mean_motion_dot": 0.00053082,
        "meta_mean_motion_ddot": 0,
        "tle_line1": "1 35443U 93036AKM 25356.31629489  .00053082  00000+0  42888-2 0  9992",
        "tle_line2": "2 35443  73.9898 312.1571 0072966  91.4914 269.4631 14.97448955870218"
      },
      "geometry": {
        "type": "Point",
        "coordinates": [
          118.21237800105659,
          30.021188372158228
        ]
      }
    },
    {
      "type": "Feature",
      "properties": {
        "norad_id": 35445,
        "name": "COSMOS 2251 DEB",
        "group": "cosmos-2251-debris",
        "lat": 20.82469106862302,
        "lon": -76.13166870388702,
        "alt_km": 598.7512161129016,
        "timestamp": "2025-12-24T11:33:00.414820+00:00",
        "meta_object_name": "COSMOS 2251 DEB",
        "meta_object_id": "1993-036AKP",
        "meta_epoch": "2025-12-24T01:34:57.730080",
        "meta_mean_motion": 14.59387435,
        "meta_eccentricity": 0.0144076,
        "meta_inclination": 74.0373,
        "meta_ra_of_asc_node": 278.4098,
        "meta_arg_of_pericenter": 2.737,
        "meta_mean_anomaly": 357.4548,
        "meta_ephemeris_type": 0,
        "meta_classification_type": "U",
        "meta_norad_cat_id": 35445,
        "meta_element_set_no": 999,
        "meta_rev_at_epoch": 87494,
        "meta_bstar": 0.0020478,
        "meta_mean_motion_dot": 0.00011197,
        "meta_mean_motion_ddot": 0,
        "tle_line1": "1 35445U 93036AKP 25358.06594595  .00011197  00000+0  20478-2 0  9999",
        "tle_line2": "2 35445  74.0373 278.4098 0144076   2.7370 357.4548 14.59387435874943"
      },
      "geometry": {
        "type": "Point",
        "coordinates": [
          -76.13166870388702,
          20.82469106862302
        ]
      }
    }
  ]
}